{"fetched_at":"2026-07-10T18:08:30.666Z","source":"https://celestrak.org/NORAD/elements/gp.php?NAME=SENTINEL&FORMAT=JSON","constellation":"sentinel-1","records":[{"OBJECT_NAME":"SENTINEL-1A","OBJECT_ID":"2014-016A","EPOCH":"2026-07-10T06:29:16.855872","CLASSIFICATION_TYPE":"U","MEAN_MOTION":14.59200298,"ECCENTRICITY":0.00014389,"INCLINATION":98.1787,"RA_OF_ASC_NODE":198.4662,"ARG_OF_PERICENTER":85.8306,"MEAN_ANOMALY":274.3058,"EPHEMERIS_TYPE":0,"NORAD_CAT_ID":39634,"ELEMENT_SET_NO":999,"REV_AT_EPOCH":65338,"BSTAR":0.000058409669,"MEAN_MOTION_DOT":0.0000023,"MEAN_MOTION_DDOT":0},{"OBJECT_NAME":"SENTINEL-1C","OBJECT_ID":"2024-235A","EPOCH":"2026-07-10T05:47:16.251648","CLASSIFICATION_TYPE":"U","MEAN_MOTION":14.59197595,"ECCENTRICITY":0.00013768,"INCLINATION":98.1822,"RA_OF_ASC_NODE":198.2213,"ARG_OF_PERICENTER":89.9097,"MEAN_ANOMALY":270.2261,"EPHEMERIS_TYPE":0,"NORAD_CAT_ID":62261,"ELEMENT_SET_NO":999,"REV_AT_EPOCH":8477,"BSTAR":0.000026970416,"MEAN_MOTION_DOT":8.1e-7,"MEAN_MOTION_DDOT":0},{"OBJECT_NAME":"SENTINEL-1D","OBJECT_ID":"2025-251A","EPOCH":"2026-07-09T17:26:55.082688","CLASSIFICATION_TYPE":"U","MEAN_MOTION":14.59197989,"ECCENTRICITY":0.00013849,"INCLINATION":98.183,"RA_OF_ASC_NODE":197.7693,"ARG_OF_PERICENTER":90.8533,"MEAN_ANOMALY":269.2825,"EPHEMERIS_TYPE":0,"NORAD_CAT_ID":66315,"ELEMENT_SET_NO":999,"REV_AT_EPOCH":3601,"BSTAR":0.000004875113,"MEAN_MOTION_DOT":-2.3e-7,"MEAN_MOTION_DDOT":0}]}
